ORBCOMM FM115 [+]       
1 41186U 15081H   23256.13670160  .00001358  00000+0  31653-3 0  9994
2 41186  46.9985 211.1881 0001307 321.0021  39.0771 14.59884659413739
ORBCOMM FM108 [+]       
1 41187U 15081J   23255.85518075  .00000945  00000+0  25101-3 0  9991
2 41187  47.0041 259.3170 0003369 259.7094 100.3411 14.55881162412988
ORBCOMM FM117 [+]       
1 41188U 15081K   23255.82028513  .00000957  00000+0  25373-3 0  9996
2 41188  47.0002 258.4490 0004141 265.4947  94.5465 14.55876997413020
ORBCOMM FM116 [+]       
1 41189U 15081L   23255.74174644  .00001515  00000+0  37966-3 0  9997
2 41189  47.0038 348.6264 0002207 317.8120  42.2595 14.55873665411826
