<?xml version="1.0" encoding="UTF-8"?>
<ndm xmlns:xsi="http://www.w3.org/2001/XMLSchema-instance" xsi:noNamespaceSchemaLocation="https://sanaregistry.org/r/ndmxml_unqualified/ndmxml-2.0.0-master-2.0.xsd">
<omm id="CCSDS_OMM_VERS" version="2.0">
<header><CREATION_DATE/><ORIGINATOR/></header><body><segment><metadata><OBJECT_NAME>ORBCOMM FM115 [+]</OBJECT_NAME><OBJECT_ID>2015-081H</OBJECT_ID><CENTER_NAME>EARTH</CENTER_NAME><REF_FRAME>TEME</REF_FRAME><TIME_SYSTEM>UTC</TIME_SYSTEM><MEAN_ELEMENT_THEORY>SGP4</MEAN_ELEMENT_THEORY></metadata><data><meanElements><EPOCH>2023-09-13T03:16:51.018240</EPOCH><MEAN_MOTION>14.59884659</MEAN_MOTION><ECCENTRICITY>.0001307</ECCENTRICITY><INCLINATION>46.9985</INCLINATION><RA_OF_ASC_NODE>211.1881</RA_OF_ASC_NODE><ARG_OF_PERICENTER>321.0021</ARG_OF_PERICENTER><MEAN_ANOMALY>39.0771</MEAN_ANOMALY></meanElements><tleParameters><EPHEMERIS_TYPE>0</EPHEMERIS_TYPE><CLASSIFICATION_TYPE>U</CLASSIFICATION_TYPE><NORAD_CAT_ID>41186</NORAD_CAT_ID><ELEMENT_SET_NO>999</ELEMENT_SET_NO><REV_AT_EPOCH>41373</REV_AT_EPOCH><BSTAR>.31653E-3</BSTAR><MEAN_MOTION_DOT>.1358E-4</MEAN_MOTION_DOT><MEAN_MOTION_DDOT>0</MEAN_MOTION_DDOT></tleParameters></data></segment></body></omm>
<omm id="CCSDS_OMM_VERS" version="2.0">
<header><CREATION_DATE/><ORIGINATOR/></header><body><segment><metadata><OBJECT_NAME>ORBCOMM FM108 [+]</OBJECT_NAME><OBJECT_ID>2015-081J</OBJECT_ID><CENTER_NAME>EARTH</CENTER_NAME><REF_FRAME>TEME</REF_FRAME><TIME_SYSTEM>UTC</TIME_SYSTEM><MEAN_ELEMENT_THEORY>SGP4</MEAN_ELEMENT_THEORY></metadata><data><meanElements><EPOCH>2023-09-12T20:31:27.616800</EPOCH><MEAN_MOTION>14.55881162</MEAN_MOTION><ECCENTRICITY>.0003369</ECCENTRICITY><INCLINATION>47.0041</INCLINATION><RA_OF_ASC_NODE>259.3170</RA_OF_ASC_NODE><ARG_OF_PERICENTER>259.7094</ARG_OF_PERICENTER><MEAN_ANOMALY>100.3411</MEAN_ANOMALY></meanElements><tleParameters><EPHEMERIS_TYPE>0</EPHEMERIS_TYPE><CLASSIFICATION_TYPE>U</CLASSIFICATION_TYPE><NORAD_CAT_ID>41187</NORAD_CAT_ID><ELEMENT_SET_NO>999</ELEMENT_SET_NO><REV_AT_EPOCH>41298</REV_AT_EPOCH><BSTAR>.25101E-3</BSTAR><MEAN_MOTION_DOT>.945E-5</MEAN_MOTION_DOT><MEAN_MOTION_DDOT>0</MEAN_MOTION_DDOT></tleParameters></data></segment></body></omm>
<omm id="CCSDS_OMM_VERS" version="2.0">
<header><CREATION_DATE/><ORIGINATOR/></header><body><segment><metadata><OBJECT_NAME>ORBCOMM FM117 [+]</OBJECT_NAME><OBJECT_ID>2015-081K</OBJECT_ID><CENTER_NAME>EARTH</CENTER_NAME><REF_FRAME>TEME</REF_FRAME><TIME_SYSTEM>UTC</TIME_SYSTEM><MEAN_ELEMENT_THEORY>SGP4</MEAN_ELEMENT_THEORY></metadata><data><meanElements><EPOCH>2023-09-12T19:41:12.635232</EPOCH><MEAN_MOTION>14.55876997</MEAN_MOTION><ECCENTRICITY>.0004141</ECCENTRICITY><INCLINATION>47.0002</INCLINATION><RA_OF_ASC_NODE>258.4490</RA_OF_ASC_NODE><ARG_OF_PERICENTER>265.4947</ARG_OF_PERICENTER><MEAN_ANOMALY>94.5465</MEAN_ANOMALY></meanElements><tleParameters><EPHEMERIS_TYPE>0</EPHEMERIS_TYPE><CLASSIFICATION_TYPE>U</CLASSIFICATION_TYPE><NORAD_CAT_ID>41188</NORAD_CAT_ID><ELEMENT_SET_NO>999</ELEMENT_SET_NO><REV_AT_EPOCH>41302</REV_AT_EPOCH><BSTAR>.25373E-3</BSTAR><MEAN_MOTION_DOT>.957E-5</MEAN_MOTION_DOT><MEAN_MOTION_DDOT>0</MEAN_MOTION_DDOT></tleParameters></data></segment></body></omm>
<omm id="CCSDS_OMM_VERS" version="2.0">
<header><CREATION_DATE/><ORIGINATOR/></header><body><segment><metadata><OBJECT_NAME>ORBCOMM FM116 [+]</OBJECT_NAME><OBJECT_ID>2015-081L</OBJECT_ID><CENTER_NAME>EARTH</CENTER_NAME><REF_FRAME>TEME</REF_FRAME><TIME_SYSTEM>UTC</TIME_SYSTEM><MEAN_ELEMENT_THEORY>SGP4</MEAN_ELEMENT_THEORY></metadata><data><meanElements><EPOCH>2023-09-12T17:48:06.892416</EPOCH><MEAN_MOTION>14.55873665</MEAN_MOTION><ECCENTRICITY>.0002207</ECCENTRICITY><INCLINATION>47.0038</INCLINATION><RA_OF_ASC_NODE>348.6264</RA_OF_ASC_NODE><ARG_OF_PERICENTER>317.8120</ARG_OF_PERICENTER><MEAN_ANOMALY>42.2595</MEAN_ANOMALY></meanElements><tleParameters><EPHEMERIS_TYPE>0</EPHEMERIS_TYPE><CLASSIFICATION_TYPE>U</CLASSIFICATION_TYPE><NORAD_CAT_ID>41189</NORAD_CAT_ID><ELEMENT_SET_NO>999</ELEMENT_SET_NO><REV_AT_EPOCH>41182</REV_AT_EPOCH><BSTAR>.37966E-3</BSTAR><MEAN_MOTION_DOT>.1515E-4</MEAN_MOTION_DOT><MEAN_MOTION_DDOT>0</MEAN_MOTION_DDOT></tleParameters></data></segment></body></omm>
</ndm>
